[{"OBJECT_NAME":"TWILIGHT-1 OBJECT Z","OBJECT_ID":"2026-004Z","EPOCH":"2026-03-09T21:26:05.365824","MEAN_MOTION":14.88483265,"ECCENTRICITY":0.00044133,"INCLINATION":97.8002,"RA_OF_ASC_NODE":69.141,"ARG_OF_PERICENTER":91.4966,"MEAN_ANOMALY":268.6757,"EPHEMERIS_TYPE":0,"CLASSIFICATION_TYPE":"U","NORAD_CAT_ID":67386,"ELEMENT_SET_NO":999,"REV_AT_EPOCH":852,"BSTAR":0.00035192428,"MEAN_MOTION_DOT":3.215e-5,"MEAN_MOTION_DDOT":0},{"OBJECT_NAME":"METEOR 2-5 DEB","OBJECT_ID":"1979-095BV","EPOCH":"2026-03-09T13:17:04.729344","MEAN_MOTION":14.87257107,"ECCENTRICITY":0.00190594,"INCLINATION":81.1281,"RA_OF_ASC_NODE":154.5224,"ARG_OF_PERICENTER":212.6514,"MEAN_ANOMALY":147.3522,"EPHEMERIS_TYPE":0,"CLASSIFICATION_TYPE":"U","NORAD_CAT_ID":38275,"ELEMENT_SET_NO":999,"REV_AT_EPOCH":66019,"BSTAR":0.0055395633,"MEAN_MOTION_DOT":0.00050409,"MEAN_MOTION_DDOT":0}]
